{
  "type": "FeatureCollection",
  "features": [
    {
      "type": "Feature",
      "properties": {
        "norad_id": 28051,
        "name": "IRS-P6 (RESOURCESAT-1)",
        "group": "resource",
        "lat": 63.25059345970103,
        "lon": 6.740069141720394,
        "alt_km": 793.2858105817895,
        "timestamp": "2025-12-08T19:31:48.484364+00:00",
        "meta_object_name": "IRS-P6 (RESOURCESAT-1)",
        "meta_object_id": "2003-046A",
        "meta_epoch": "2025-12-08T06:26:42.700992",
        "meta_mean_motion": 14.36072031,
        "meta_eccentricity": 0.00639432,
        "meta_inclination": 98.2184,
        "meta_ra_of_asc_node": 22.8828,
        "meta_arg_of_pericenter": 194.1261,
        "meta_mean_anomaly": 293.9534,
        "meta_ephemeris_type": 0,
        "meta_classification_type": "U",
        "meta_norad_cat_id": 28051,
        "meta_element_set_no": 999,
        "meta_rev_at_epoch": 15312,
        "meta_bstar": 0.000151569,
        "meta_mean_motion_dot": 4.1e-06,
        "meta_mean_motion_ddot": 0,
        "tle_line1": "1 28051U 03046A   25342.26854978  .00000410  00000+0  15157-3 0  9990",
        "tle_line2": "2 28051  98.2184  22.8828 0063943 194.1261 293.9534 14.36072031153123"
      },
      "geometry": {
        "type": "Point",
        "coordinates": [
          6.740069141720394,
          63.25059345970103
        ]
      }
    },
    {
      "type": "Feature",
      "properties": {
        "norad_id": 28220,
        "name": "SHIYAN-1 (SY-1)",
        "group": "resource",
        "lat": 77.68300901229645,
        "lon": 4.669497816362972,
        "alt_km": 475.2337261886014,
        "timestamp": "2025-12-08T19:31:48.484374+00:00",
        "meta_object_name": "SHIYAN-1 (SY-1)",
        "meta_object_id": "2004-012A",
        "meta_epoch": "2025-12-08T03:27:43.909344",
        "meta_mean_motion": 15.27962186,
        "meta_eccentricity": 0.00059298,
        "meta_inclination": 97.8934,
        "meta_ra_of_asc_node": 43.4119,
        "meta_arg_of_pericenter": 343.3198,
        "meta_mean_anomaly": 16.7844,
        "meta_ephemeris_type": 0,
        "meta_classification_type": "U",
        "meta_norad_cat_id": 28220,
        "meta_element_set_no": 999,
        "meta_rev_at_epoch": 18186,
        "meta_bstar": 0.00060079939,
        "meta_mean_motion_dot": 0.00016338,
        "meta_mean_motion_ddot": 0,
        "tle_line1": "1 28220U 04012A   25342.14425821  .00016338  00000+0  60080-3 0  9991",
        "tle_line2": "2 28220  97.8934  43.4119 0005929 343.3198  16.7844 15.27962186181865"
      },
      "geometry": {
        "type": "Point",
        "coordinates": [
          4.669497816362972,
          77.68300901229645
        ]
      }
    },
    {
      "type": "Feature",
      "properties": {
        "norad_id": 28376,
        "name": "AURA",
        "group": "resource",
        "lat": -18.996024142897998,
        "lon": -64.09095115880983,
        "alt_km": 695.5366255726294,
        "timestamp": "2025-12-08T19:31:48.484384+00:00",
        "meta_object_name": "AURA",
        "meta_object_id": "2004-026A",
        "meta_epoch": "2025-12-08T06:28:03.982656",
        "meta_mean_motion": 14.60931313,
        "meta_eccentricity": 0.00011667,
        "meta_inclination": 98.3179,
        "meta_ra_of_asc_node": 292.4755,
        "meta_arg_of_pericenter": 92.9801,
        "meta_mean_anomaly": 267.1533,
        "meta_ephemeris_type": 0,
        "meta_classification_type": "U",
        "meta_norad_cat_id": 28376,
        "meta_element_set_no": 999,
        "meta_rev_at_epoch": 13833,
        "meta_bstar": 0.00044565954,
        "meta_mean_motion_dot": 2.135e-05,
        "meta_mean_motion_ddot": 0,
        "tle_line1": "1 28376U 04026A   25342.26949054  .00002135  00000+0  44566-3 0  9991",
        "tle_line2": "2 28376  98.3179 292.4755 0001166  92.9801 267.1533 14.60931313138338"
      },
      "geometry": {
        "type": "Point",
        "coordinates": [
          -64.09095115880983,
          -18.996024142897998
        ]
      }
    },
    {
      "type": "Feature",
      "properties": {
        "norad_id": 28649,
        "name": "IRS-P5 (CARTOSAT-1)",
        "group": "resource",
        "lat": 41.00457573169994,
        "lon": -163.9777609686807,
        "alt_km": 593.5481585003154,
        "timestamp": "2025-12-08T19:31:48.484394+00:00",
        "meta_object_name": "IRS-P5 (CARTOSAT-1)",
        "meta_object_id": "2005-017A",
        "meta_epoch": "2025-12-08T01:11:11.260896",
        "meta_mean_motion": 14.90380726,
        "meta_eccentricity": 0.00015361,
        "meta_inclination": 97.5494,
        "meta_ra_of_asc_node": 8.6707,
        "meta_arg_of_pericenter": 49.3717,
        "meta_mean_anomaly": 310.7635,
        "meta_ephemeris_type": 0,
        "meta_classification_type": "U",
        "meta_norad_cat_id": 28649,
        "meta_element_set_no": 999,
        "meta_rev_at_epoch": 11534,
        "meta_bstar": 0.00023277771,
        "meta_mean_motion_dot": 2.214e-05,
        "meta_mean_motion_ddot": 0,
        "tle_line1": "1 28649U 05017A   25342.04943589  .00002214  00000+0  23278-3 0  9993",
        "tle_line2": "2 28649  97.5494   8.6707 0001536  49.3717 310.7635 14.90380726115342"
      },
      "geometry": {
        "type": "Point",
        "coordinates": [
          -163.9777609686807,
          41.00457573169994
        ]
      }
    },
    {
      "type": "Feature",
      "properties": {
        "norad_id": 28893,
        "name": "SINAH 1",
        "group": "resource",
        "lat": 34.805417605814384,
        "lon": -62.843727655821596,
        "alt_km": 667.4919159759629,
        "timestamp": "2025-12-08T19:31:48.484403+00:00",
        "meta_object_name": "SINAH 1",
        "meta_object_id": "2005-043D",
        "meta_epoch": "2025-12-08T07:23:21.051456",
        "meta_mean_motion": 14.63955314,
        "meta_eccentricity": 0.00151067,
        "meta_inclination": 98.2601,
        "meta_ra_of_asc_node": 110.8533,
        "meta_arg_of_pericenter": 150.1912,
        "meta_mean_anomaly": 210.0154,
        "meta_ephemeris_type": 0,
        "meta_classification_type": "U",
        "meta_norad_cat_id": 28893,
        "meta_element_set_no": 999,
        "meta_rev_at_epoch": 7259,
        "meta_bstar": 0.0002035551,
        "meta_mean_motion_dot": 1.018e-05,
        "meta_mean_motion_ddot": 0,
        "tle_line1": "1 28893U 05043D   25342.30788254  .00001018  00000+0  20356-3 0  9993",
        "tle_line2": "2 28893  98.2601 110.8533 0015106 150.1912 210.0154 14.63955314 72598"
      },
      "geometry": {
        "type": "Point",
        "coordinates": [
          -62.843727655821596,
          34.805417605814384
        ]
      }
    },
    {
      "type": "Feature",
      "properties": {
        "norad_id": 29079,
        "name": "EROS B",
        "group": "resource",
        "lat": 45.8558911995205,
        "lon": -73.15369159406933,
        "alt_km": 365.34768137480023,
        "timestamp": "2025-12-08T19:31:48.484413+00:00",
        "meta_object_name": "EROS B",
        "meta_object_id": "2006-014A",
        "meta_epoch": "2025-12-08T06:41:51.834624",
        "meta_mean_motion": 15.66515807,
        "meta_eccentricity": 0.00016937,
        "meta_inclination": 97.3484,
        "meta_ra_of_asc_node": 98.6463,
        "meta_arg_of_pericenter": 271.235,
        "meta_mean_anomaly": 88.8717,
        "meta_ephemeris_type": 0,
        "meta_classification_type": "U",
        "meta_norad_cat_id": 29079,
        "meta_element_set_no": 999,
        "meta_rev_at_epoch": 9010,
        "meta_bstar": 0.0015275183,
        "meta_mean_motion_dot": 0.00161815,
        "meta_mean_motion_ddot": 0,
        "tle_line1": "1 29079U 06014A   25342.27907216  .00161815  00000+0  15275-2 0  9991",
        "tle_line2": "2 29079  97.3484  98.6463 0001693 271.2350  88.8717 15.66515807 90102"
      },
      "geometry": {
        "type": "Point",
        "coordinates": [
          -73.15369159406933,
          45.8558911995205
        ]
      }
    },
    {
      "type": "Feature",
      "properties": {
        "norad_id": 29228,
        "name": "RESURS-DK 1",
        "group": "resource",
        "lat": 67.26241162149269,
        "lon": -128.7316926389277,
        "alt_km": 527.531112361793,
        "timestamp": "2025-12-08T19:31:48.484422+00:00",
        "meta_object_name": "RESURS-DK 1",
        "meta_object_id": "2006-021A",
        "meta_epoch": "2025-12-08T07:58:18.843456",
        "meta_mean_motion": 15.12123711,
        "meta_eccentricity": 0.00076452,
        "meta_inclination": 69.9342,
        "meta_ra_of_asc_node": 113.2282,
        "meta_arg_of_pericenter": 262.577,
        "meta_mean_anomaly": 97.4527,
        "meta_ephemeris_type": 0,
        "meta_classification_type": "U",
        "meta_norad_cat_id": 29228,
        "meta_element_set_no": 999,
        "meta_rev_at_epoch": 7371,
        "meta_bstar": 0.00025855586,
        "meta_mean_motion_dot": 4.362e-05,
        "meta_mean_motion_ddot": 0,
        "tle_line1": "1 29228U 06021A   25342.33216254  .00004362  00000+0  25856-3 0  9997",
        "tle_line2": "2 29228  69.9342 113.2282 0007645 262.5770  97.4527 15.12123711 73714"
      },
      "geometry": {
        "type": "Point",
        "coordinates": [
          -128.7316926389277,
          67.26241162149269
        ]
      }
    }
  ]
}